EXCITE                  
1 43819U 18099BP  26068.69809098  .00002813  00000+0  19631-3 0  9999
2 43819  97.4107 111.3606 0017626 337.4818  22.5634 15.06036758396774
STARLINK-4726           
1 53802U 22111AF  26068.85773228  .00000641  00000+0  58339-4 0  9991
2 53802  53.2167 263.2327 0001249  88.4404 271.6731 15.08840500193846
